$$SOE
2460721.500000000, A.D. 2025-Feb-15 00:00:00.0000, -1.671270208098167E+08, 3.130523253028839E+08, 8.248308547162488E+06,
2460728.500000000, A.D. 2025-Feb-22 00:00:00.0000, -1.769511887405125E+08, 3.074501761185989E+08, 8.346585651002765E+06,
2460735.500000000, A.D. 2025-Mar-01 00:00:00.0000, -1.865830106150462E+08, 3.015140302930244E+08, 8.435790040191278E+06,
2460742.500000000, A.D. 2025-Mar-08 00:00:00.0000, -1.960117503242860E+08, 2.952498978359956E+08, 8.515812451982632E+06,
2460749.500000000, A.D. 2025-Mar-15 00:00:00.0000, -2.052268185861047E+08, 2.886640967924544E+08, 8.586551393544883E+06,
2460756.500000000, A.D. 2025-Mar-22 00:00:00.0000, -2.142177811990146E+08, 2.817632527440832E+08, 8.647913486537769E+06,
2460763.500000000, A.D. 2025-Mar-29 00:00:00.0000, -2.229743661367446E+08, 2.745542961374631E+08, 8.699813508535638E+06,
2460770.500000000, A.D. 2025-Apr-05 00:00:00.0000, -2.314864691767142E+08, 2.670444605557253E+08, 8.742174357843325E+06,
2460777.500000000, A.D. 2025-Apr-12 00:00:00.0000, -2.397441600084401E+08, 2.592412820235111E+08, 8.774927126109064E+06,
2460784.500000000, A.D. 2025-Apr-19 00:00:00.0000, -2.477376890232795E+08, 2.511525984455973E+08, 8.798011223372295E+06,
2460791.500000000, A.D. 2025-Apr-26 00:00:00.0000, -2.554574945281574E+08, 2.427865489530699E+08, 8.811374513824791E+06,
2460798.500000000, A.D. 2025-May-03 00:00:00.0000, -2.628942102849731E+08, 2.341515731524693E+08, 8.814973453218281E+06,
2460805.500000000, A.D. 2025-May-10 00:00:00.0000, -2.700386733621540E+08, 2.252564102624832E+08, 8.808773225762978E+06,
2460812.500000000, A.D. 2025-May-17 00:00:00.0000, -2.768819322757241E+08, 2.161100980721346E+08, 8.792747873544946E+06,
2460819.500000000, A.D. 2025-May-24 00:00:00.0000, -2.834152552587979E+08, 2.067219716395784E+08, 8.766880397815093E+06,
2460826.500000000, A.D. 2025-May-31 00:00:00.0000, -2.896301382531193E+08, 1.971016620141855E+08, 8.731162819011718E+06,
2460833.500000000, A.D. 2025-Jun-07 00:00:00.0000, -2.955183130345001E+08, 1.872590961562147E+08, 8.685596330476180E+06,
2460840.500000000, A.D. 2025-Jun-14 00:00:00.0000, -3.010717578496473E+08, 1.772044973568184E+08, 8.630191707745396E+06,
2460847.500000000, A.D. 2025-Jun-21 00:00:00.0000, -3.062827093575130E+08, 1.669483828591470E+08, 8.564969593933530E+06,
2460854.500000000, A.D. 2025-Jun-28 00:00:00.0000, -3.111436727459735E+08, 1.565015604107834E+08, 8.489960518495791E+06,
2460861.500000000, A.D. 2025-Jul-05 00:00:00.0000, -3.156474315428559E+08, 1.458751258615804E+08, 8.405204964513488E+06,
2460868.500000000, A.D. 2025-Jul-12 00:00:00.0000, -3.197870583208496E+08, 1.350804609641304E+08, 8.310753527073652E+06,
2460875.500000000, A.D. 2025-Jul-19 00:00:00.0000, -3.235559261090602E+08, 1.241292307660248E+08, 8.206667097663015E+06,
2460882.500000000, A.D. 2025-Jul-26 00:00:00.0000, -3.269477202981272E+08, 1.130333804973668E+08, 8.093017050183095E+06,
2460889.500000000, A.D. 2025-Aug-02 00:00:00.0000, -3.299564509683306E+08, 1.018051319324221E+08, 7.969885423771210E+06,
2460896.500000000, A.D. 2025-Aug-09 00:00:00.0000, -3.325764656100184E+08, 9.045697916670445E+07, 7.837365098406527E+06,
2460903.500000000, A.D. 2025-Aug-16 00:00:00.0000, -3.348024621493443E+08, 7.900168370112820E+07, 7.695559950341102E+06,
2460910.500000000, A.D. 2025-Aug-23 00:00:00.0000, -3.366295019731418E+08, 6.745226880343297E+07, 7.544584961095281E+06,
2460917.500000000, A.D. 2025-Aug-30 00:00:00.0000, -3.380530226062599E+08, 5.582201381319542E+07, 7.384566307385746E+06,
2460924.500000000, A.D. 2025-Sep-06 00:00:00.0000, -3.390688514382324E+08, 4.412444934081054E+07, 7.215641642836789E+06,
2460931.500000000, A.D. 2025-Sep-13 00:00:00.0000, -3.396732221488866E+08, 3.237335082664452E+07, 7.037960520530768E+06,
2460938.500000000, A.D. 2025-Sep-20 00:00:00.0000, -3.398627905358424E+08, 2.058272876836042E+07, 6.851684520585262E+06,
2460945.500000000, A.D. 2025-Sep-27 00:00:00.0000, -3.396346486481632E+08, 8.766818681054913E+06, 6.656987239200389E+06,
2460952.500000000, A.D. 2025-Oct-04 00:00:00.0000, -3.389863391989227E+08, -3.059928724170809E+06, 6.454054367021700E+06,
2460959.500000000, A.D. 2025-Oct-11 00:00:00.0000, -3.379158705907682E+08, -1.488285814082359E+07, 6.243083812028220E+06,
2460966.500000000, A.D. 2025-Oct-18 00:00:00.0000, -3.364217322291721E+08, -2.668712137037928E+07, 6.024285816500750E+06,
2460973.500000000, A.D. 2025-Oct-25 00:00:00.0000, -3.345029099339540E+08, -3.845769016302550E+07, 5.797883054330040E+06,
2460980.500000000, A.D. 2025-Nov-01 00:00:00.0000, -3.321589013517728E+08, -5.017937022313981E+07, 5.564110704417523E+06,
2460987.500000000, A.D. 2025-Nov-08 00:00:00.0000, -3.293897312679433E+08, -6.183681644969767E+07, 5.323216492541548E+06,
2460994.500000000, A.D. 2025-Nov-15 00:00:00.0000, -3.261959665908993E+08, -7.341454950625047E+07, 5.075460681551840E+06,
2461001.500000000, A.D. 2025-Nov-22 00:00:00.0000, -3.225787305176622E+08, -8.489697353782645E+07, 4.821115989093561E+06,
2461008.500000000, A.D. 2025-Nov-29 00:00:00.0000, -3.185397159413770E+08, -9.626839394022396E+07, 4.560467537393995E+06,
2461015.500000000, A.D. 2025-Dec-06 00:00:00.0000, -3.140812002897596E+08, -1.075130353572692E+08, 4.293813029957443E+06,
2461022.500000000, A.D. 2025-Dec-13 00:00:00.0000, -3.092060612775020E+08, -1.186150633082612E+08, 4.021462836696327E+06,
2461029.500000000, A.D. 2025-Dec-20 00:00:00.0000, -3.039177899932809E+08, -1.295586084398928E+08, 3.743739748051219E+06,
2461036.500000000, A.D. 2025-Dec-27 00:00:00.0000, -2.982205022932277E+08, -1.403277908142628E+08, 3.460978706599183E+06,
2461043.500000000, A.D. 2026-Jan-03 00:00:00.0000, -2.921189498423983E+08, -1.509067448450603E+08, 3.173526597954288E+06,
2461050.500000000, A.D. 2026-Jan-10 00:00:00.0000, -2.856185305717875E+08, -1.612796455553765E+08, 2.881742033112623E+06,
2461057.500000000, A.D. 2026-Jan-17 00:00:00.0000, -2.787252981968259E+08, -1.714307362363816E+08, 2.585995091088966E+06,
2461064.500000000, A.D. 2026-Jan-24 00:00:00.0000, -2.714459705962681E+08, -1.813443574596611E+08, 2.286667014687136E+06,
2461071.500000000, A.D. 2026-Jan-31 00:00:00.0000, -2.637879369006737E+08, -1.910049774137935E+08, 1.984149855069280E+06,
2461078.500000000, A.D. 2026-Feb-07 00:00:00.0000, -2.557592630988428E+08, -2.003972235742837E+08, 1.678846053297684E+06,
2461085.500000000, A.D. 2026-Feb-14 00:00:00.0000, -2.473686957783348E+08, -2.095059156619553E+08, 1.371167932998538E+06,
2461092.500000000, A.D. 2026-Feb-21 00:00:00.0000, -2.386256634821359E+08, -2.183160992393702E+08, 1.061537114595607E+06,
2461099.500000000, A.D. 2026-Feb-28 00:00:00.0000, -2.295402766364237E+08, -2.268130787040853E+08, 7.503840439345241E+05,
2461106.500000000, A.D. 2026-Mar-07 00:00:00.0000, -2.201233279795780E+08, -2.349824515280296E+08, 4.381476638386250E+05,
2461113.500000000, A.D. 2026-Mar-14 00:00:00.0000, -2.103862905949895E+08, -2.428101459647494E+08, 1.252747826020271E+05,
2461120.500000000, A.D. 2026-Mar-21 00:00:00.0000, -2.003413116521584E+08, -2.502824592016823E+08, -1.877807873203456E+05,
2461127.500000000, A.D. 2026-Mar-28 00:00:00.0000, -1.900012037592456E+08, -2.573860947860551E+08, -5.005590513389409E+05,
2461134.500000000, A.D. 2026-Apr-04 00:00:00.0000, -1.793794344310381E+08, -2.641082001307833E+08, -8.125946378838271E+05,
2461141.500000000, A.D. 2026-Apr-11 00:00:00.0000, -1.684901133069426E+08, -2.704364042878857E+08, -1.123417640041158E+06,
2461148.500000000, A.D. 2026-Apr-18 00:00:00.0000, -1.573479768804258E+08, -2.763588558145936E+08, -1.432554507611781E+06,
2461155.500000000, A.D. 2026-Apr-25 00:00:00.0000, -1.459683706319794E+08, -2.818642605271592E+08, -1.739528990780085E+06,
2461162.500000000, A.D. 2026-May-02 00:00:00.0000, -1.343672284911152E+08, -2.869419189702899E+08, -2.043863137951061E+06,
2461169.500000000, A.D. 2026-May-09 00:00:00.0000, -1.225610494764293E+08, -2.915817634556195E+08, -2.345078361357823E+06,
2461176.500000000, A.D. 2026-May-16 00:00:00.0000, -1.105668711282152E+08, -2.957743943095910E+08, -2.642696590236261E+06,
2461183.500000000, A.D. 2026-May-23 00:00:00.0000, -9.840223969537163E+07, -2.995111140799093E+08, -2.936241428834319E+06,
2461190.500000000, A.D. 2026-May-30 00:00:00.0000, -8.608517919016372E+07, -3.027839591448918E+08, -3.225239098209754E+06,
2461197.500000000, A.D. 2026-Jun-06 00:00:00.0000, -7.363415968357578E+07, -3.055857317585352E+08, -3.509219395732462E+06,
2461204.500000000, A.D. 2026-Jun-13 00:00:00.0000, -6.106806125243561E+07, -3.079100320943054E+08, -3.787716987265021E+06,
2461211.500000000, A.D. 2026-Jun-20 00:00:00.0000, -4.840613417904798E+07, -3.097512871279290E+08, -4.060272741086528E+06,
2461218.500000000, A.D. 2026-Jun-27 00:00:00.0000, -3.566795722228874E+07, -3.111047764720345E+08, -4.326434969208255E+06,
2461225.500000000, A.D. 2026-Jul-04 00:00:00.0000, -2.287339410349145E+07, -3.119666557231861E+08, -4.585760632933646E+06,
2461232.500000000, A.D. 2026-Jul-11 00:00:00.0000, -1.004254812181060E+07, -3.123339772538592E+08, -4.837816540360004E+06,
2461239.500000000, A.D. 2026-Jul-18 00:00:00.0000, 2.804285000609652E+06, -3.122047082388991E+08, -5.082180536180973E+06,
2461246.500000000, A.D. 2026-Jul-25 00:00:00.0000, 1.564666585366136E+07, -3.115777457465157E+08, -5.318442679943576E+06,
2461253.500000000, A.D. 2026-Aug-01 00:00:00.0000, 2.846406146699396E+07, -3.104529287960503E+08, -5.546206414732233E+06,
2461260.500000000, A.D. 2026-Aug-08 00:00:00.0000, 4.123589678789072E+07, -3.088310472924876E+08, -5.765089741668478E+06,
2461267.500000000, A.D. 2026-Aug-15 00:00:00.0000, 5.394160764833593E+07, -3.067138472772304E+08, -5.974726393760741E+06,
2461274.500000000, A.D. 2026-Aug-22 00:00:00.0000, 6.656069417268003E+07, -3.041040311778933E+08, -6.174766831993148E+06,
2461281.500000000, A.D. 2026-Aug-29 00:00:00.0000, 7.907277204757822E+07, -3.010052543516278E+08, -6.364878959462777E+06,
2461288.500000000, A.D. 2026-Sep-05 00:00:00.0000, 9.145762350498702E+07, -2.974221207443565E+08, -6.544748978709608E+06,
$$EOE